OBJECT_NAME,OBJECT_ID,EPOCH,MEAN_MOTION,ECCENTRICITY,INCLINATION,RA_OF_ASC_NODE,ARG_OF_PERICENTER,MEAN_ANOMALY,EPHEMERIS_TYPE,CLASSIFICATION_TYPE,NORAD_CAT_ID,ELEMENT_SET_NO,REV_AT_EPOCH,BSTAR,MEAN_MOTION_DOT,MEAN_MOTION_DDOT
LEMUR-1,2014-033AL,2026-06-14T09:31:42.087360,14.85237170,.0049744,97.7870,315.2641,87.5629,273.1280,0,U,40044,999,64505,.2191E-3,.1866E-4,0
LEMUR-2-GREENBERG,2017-042N,2026-06-14T11:21:21.004128,15.31255154,.0008794,97.3808,346.1106,23.6410,336.5234,0,U,42837,999,48797,.51224E-3,.15418E-3,0
LEMUR-2-ANDIS,2017-042P,2026-06-14T10:38:33.927072,15.34749708,.0008448,97.3668,346.2560,22.2896,337.8713,0,U,42838,999,48803,.6085E-3,.2047E-3,0
LEMUR-2-MONSON,2017-042Q,2026-06-14T11:25:30.777024,15.27948771,.0006465,97.4069,346.0900,16.1216,344.0228,0,U,42839,999,48775,.48681E-3,.1322E-3,0
LEMUR-2-FURIAUS,2017-042R,2026-06-14T11:09:39.443040,15.30173208,.000831,97.3761,344.0642,77.4587,282.7583,0,U,42840,999,48779,.56512E-3,.16457E-3,0
LEMUR-2-PETERG,2017-042S,2026-06-14T11:47:12.747264,15.33795931,.0003478,97.3977,350.5174,7.9062,352.2234,0,U,42841,999,48802,.60582E-3,.19753E-3,0
LEMUR-2-DEMBITZ,2017-042T,2026-06-14T11:38:24.099360,15.30221090,.0007,97.3815,347.1057,38.1471,322.0264,0,U,42842,999,48793,.50828E-3,.14809E-3,0
LEMUR-2-ZACHARY,2017-042W,2026-06-14T11:29:32.267616,15.50057207,.0003114,97.3592,357.0586,43.4791,316.6705,0,U,42845,999,48878,.78729E-3,.44305E-3,0
LEMUR-2-AMANDA-SVANTE,2021-034B,2026-06-14T03:52:44.483808,15.34138619,.00019274,97.5769,243.3672,217.8791,142.2316,0,U,48269,999,28059,.10438251E-2,.34523E-3,0
LEMUR-2-SPECIAL-K,2021-034F,2026-06-14T04:57:14.673312,15.63693304,.00038813,97.5656,251.8492,229.6783,130.4137,0,U,48273,999,28122,.15892235E-2,.150405E-2,0
LEMUR-2-EMBRIONOVIS,2023-084AQ,2026-06-14T08:06:53.917056,15.37487330,.0007901,97.6281,309.4280,331.5537,28.5275,0,U,56970,999,16724,.36596E-3,.1339E-3,0
LEMUR-2-DEVERILL-M-T,2023-100F,2026-06-14T09:00:30.902688,15.39628688,.0006592,99.4471,203.3213,59.2791,300.9097,0,U,57391,999,16081,.64205E-3,.25266E-3,0
LEMUR-2-BASS,2023-174D,2026-06-14T11:40:43.264704,15.43015535,.0007504,97.3853,250.1608,170.9427,189.1957,0,U,58259,999,14494,.39468E-3,.17348E-3,0
LEMUR-2-JK0903EM1407,2023-174CJ,2026-06-14T05:47:57.543936,15.51545398,.0005817,97.3927,255.6288,128.0903,232.0874,0,U,58336,999,14527,.44756E-3,.26461E-3,0
LEMUR-2-MJR092620,2023-174CN,2026-06-14T05:51:14.305248,15.44781393,.0007045,97.3983,255.2185,126.2487,233.9413,0,U,58340,999,14519,.40704E-3,.18996E-3,0
LEMUR-2-NIMBUS2000,2024-022A,2026-06-14T11:30:40.790592,15.39920888,.0010249,97.4109,15.4476,124.1973,236.0246,0,U,58899,999,13185,.41758E-3,.16577E-3,0
LEMUR-2-VALHALLA,2024-022B,2026-06-14T11:24:25.258176,15.39601526,.0010804,97.4106,15.4354,120.5972,239.6341,0,U,58900,999,13185,.40684E-3,.15982E-3,0
LEMUR-2-OBA-NI-JESU,2024-022D,2026-06-13T06:27:58.466016,16.36778297,.0009182,97.3603,29.4721,248.5343,111.4976,0,U,58902,999,13270,.90464E-3,.7840474E-1,.25257E-5
LEMUR-2-CAEL,2024-022E,2026-06-14T11:41:51.714240,15.40898668,.0009281,97.4089,16.3788,105.4565,254.7707,0,U,58903,999,13192,.41057E-3,.16827E-3,0
LEMUR-2-JOHNNYTRUONG,2024-043BA,2026-06-14T09:25:09.691392,15.60278720,.0004707,97.5367,316.9228,184.6886,175.4327,0,U,59146,999,12760,.48566E-3,.39679E-3,0
LEMUR-2-TOMATOKECHUP,2024-149D,2026-06-14T04:13:05.397888,15.35976496,.00011473,97.3808,247.2145,181.7655,178.3585,0,U,60471,999,10170,.34860764E-3,.12135E-3,0
LEMUR-2-STELLA,2024-149BT,2026-06-14T04:04:01.991136,15.11753702,.00016434,97.6746,247.6108,94.5801,265.5617,0,U,60533,999,10004,.71531329E-3,.12144E-3,0
LEMUR-2-MARHISYAM,2024-149BW,2026-06-14T11:30:50.961600,15.11214889,.0003415,97.6890,248.3688,121.3903,238.7661,0,U,60536,999,10007,.62166E-3,.10387E-3,0
LEMUR-2-AHMED-ASRAR,2024-149DN,2026-06-14T04:27:28.220256,15.12653994,.00020094,97.7012,250.1543,47.8289,312.3111,0,U,60576,999,10011,.74724024E-3,.13012E-3,0
LEMUR-2-LLOYD,2024-149DP,2026-06-14T10:57:24.155712,15.09190906,.0004715,97.6750,246.5837,147.4880,212.6640,0,U,60577,999,9998,.62576E-3,.9889E-4,0
LEMUR-2-SQUIRRELCOMM,2024-149DQ,2026-06-14T11:12:23.762880,15.07125128,.0006695,97.6716,246.3866,69.8557,290.3390,0,U,60578,999,9999,.3648E-3,.5421E-4,0
LEMUR-2-SIERRINI,2024-149DR,2026-06-14T04:07:04.892160,15.10892403,.00055983,97.6852,247.7498,174.4250,185.7043,0,U,60579,999,10000,.7269846E-3,.12055E-3,0
LEMUR-2-WILSON,2025-009CP,2026-06-14T11:38:21.109056,14.95153772,.000428,97.7025,243.9967,63.7028,296.4632,0,U,62694,999,7695,.2175E-3,.2331E-4,0
LEMUR-2-STAR-FOX,2025-009CR,2026-06-14T03:53:57.346656,15.02464841,.00035597,97.6960,246.7924,118.7505,241.4077,0,U,62696,999,7710,.61450811E-3,.8097E-4,0
LEMUR-2-ARIANNA,2025-009CU,2026-06-14T11:51:01.614816,15.02451701,.0003914,97.6902,246.8982,124.0775,236.0822,0,U,62699,999,7715,.59639E-3,.7854E-4,0
